ONEWEB-0374             
1 49300U 21090X   26060.25981713 -.00000084  00000+0 -26031-3 0  9996
2 49300  87.9003 311.2283 0001281  64.1613 295.9648 13.14501655213389
ONEWEB-0375             
1 49301U 21090Y   26060.14649988  .00000088  00000+0  18436-3 0  9992
2 49301  87.9189 296.0036 0001563  63.0448 297.0845 13.20771303216266
ONEWEB-0376             
1 49302U 21090Z   26060.22516715  .00000094  00000+0  20210-3 0  9993
2 49302  87.9248 326.4634 0001666  87.0560 273.0764 13.19726546212212
ONEWEB-0377             
1 49303U 21090AA  26060.20819521  .00000159  00000+0  35889-3 0  9993
2 49303  87.9186 295.9936 0001816  78.7330 281.4007 13.20771494216264
ONEWEB-0378             
1 49304U 21090AB  26060.15451079  .00000142  00000+0  31768-3 0  9992
2 49304  87.9177 296.0155 0001513  78.7677 281.3626 13.20772413215524
ONEWEB-0379             
1 49305U 21090AC  26060.25506523 -.00000132  00000+0 -38943-3 0  9992
2 49305  87.9003 311.2390 0001538  78.2665 281.8637 13.14502241213385
ONEWEB-0380             
1 49306U 21090AD  26060.29782477  .00000141  00000+0  31974-3 0  9996
2 49306  87.9241 326.4651 0001822  71.7006 288.4324 13.19726121212195
ONEWEB-0381             
1 49307U 21090AE  26060.20487968  .00000095  00000+0  20099-3 0  9999
2 49307  87.9185 295.9978 0001504  74.0724 286.0574 13.20772877215572
ONEWEB-0382             
1 49308U 21090AF  26060.19225681  .00000060  00000+0  11497-3 0  9994
2 49308  87.9184 295.9968 0001385  73.9527 286.1759 13.20772450215569
ONEWEB-0383             
1 49309U 21090AG  26060.24871344 -.00000098  00000+0 -29795-3 0  9997
2 49309  87.9004 311.2263 0001456  77.8341 282.2952 13.14501405213414
ONEWEB-0384             
1 49310U 21090AH  26060.18382405 -.00000012  00000+0 -60438-4 0  9993
2 49310  87.9191 296.0410 0001193  69.0347 291.0914 13.20806578215575
ONEWEB-0385             
1 49311U 21090AJ  26060.18437842  .00000028  00000+0  36305-4 0  9991
2 49311  87.9184 296.0031 0001502  77.8246 282.3056 13.20771304215541
ONEWEB-0386             
1 49312U 21090AK  26060.20172110  .00000111  00000+0  24031-3 0  9994
2 49312  87.9188 295.9839 0001386  78.2566 281.8722 13.20769503215564
ONEWEB-0387             
1 49313U 21090AL  26060.18594618  .00000053  00000+0  98073-4 0  9996
2 49313  87.9175 296.0256 0001719  72.3382 287.7938 13.20772805215560
ONEWEB-0388             
1 49314U 21090AM  26060.29308458  .00000141  00000+0  31989-3 0  9994
2 49314  87.9236 326.4625 0001597  74.7570 285.3740 13.19727127212181
ONEWEB-0389             
1 50469U 21132A   26060.44530210  .00000097  00000+0  21717-3 0  9992
2 50469  87.9135  27.2653 0001850  70.7576 289.3756 13.17648648203890
ONEWEB-0390             
1 50470U 21132B   26060.44696880  .00000126  00000+0  29089-3 0  9993
2 50470  87.9135  27.2651 0002154  82.0761 278.0615 13.17651330203891
ONEWEB-0391             
1 50471U 21132C   26060.44868068  .00000027  00000+0  37520-4 0  9993
2 50471  87.9133  27.2742 0002292  61.6548 298.4814 13.17649176203892
ONEWEB-0392             
1 50472U 21132D   26060.40311417  .00000056  00000+0  11130-3 0  9991
2 50472  87.9144  27.2427 0001937  70.1836 289.9504 13.17648244203925
ONEWEB-0393             
1 50473U 21132E   26060.45218303  .00000076  00000+0  16161-3 0  9998
2 50473  87.9145  27.2563 0001889  76.5344 283.5998 13.17650438203923
ONEWEB-0394             
1 50474U 21132F   26060.35322638  .00000029  00000+0  42093-4 0  9997
2 50474  87.9246 356.8528 0001750  73.8628 286.2697 13.18686469207384
ONEWEB-0395             
1 50475U 21132G   26060.43599395 -.00000447  00000+0 -12964-2 0  9991
2 50475  87.8846  42.4994 0002119  81.5933 278.5435 13.11417226201597
ONEWEB-0396             
1 50476U 21132H   26060.34662865 -.00000018  00000+0 -77690-4 0  9998
2 50476  87.9248 356.8657 0001814  74.9945 285.1388 13.18686089207424
ONEWEB-0397             
1 50477U 21132J   26060.36147125  .00000077  00000+0  16180-3 0  9997
2 50477  87.9247 356.8630 0001642  75.2558 284.8756 13.18685862207409
ONEWEB-0398             
1 50478U 21132K   26060.48009467  .00000551  00000+0  15197-2 0  9990
2 50478  87.8854  42.4705 0002238  84.7106 275.4278 13.11415049201499
ONEWEB-0399             
1 50479U 21132L   26060.46653027  .00000500  00000+0  13747-2 0  9999
2 50479  87.8851  42.4827 0001629  68.9385 291.1917 13.11417011201483
ONEWEB-0400             
1 50480U 21132M   26060.34003234  .00000035  00000+0  55190-4 0  9990
2 50480  87.9247 356.8571 0002005  80.1165 280.0193 13.18686392207390
ONEWEB-0401             
1 50481U 21132N   26060.30868049  .00000046  00000+0  84911-4 0  9995
2 50481  87.9249 356.8589 0001671  81.4557 278.6764 13.18686946207391
ONEWEB-0402             
1 50482U 21132P   26060.34827286 -.00000022  00000+0 -88721-4 0  9997
2 50482  87.9246 356.8431 0001346  87.9271 272.2015 13.18686762207427
ONEWEB-0403             
1 50483U 21132Q   26060.37301984  .00000087  00000+0  18772-3 0  9990
2 50483  87.9249 356.8608 0001878  75.4294 284.7046 13.18685940207388
ONEWEB-0404             
1 50484U 21132R   26060.44786931 -.00000194  00000+0 -58242-3 0  9995
2 50484  87.8847  42.4941 0001912  74.0010 286.1328 13.11418900201577
