OBJECT_NAME,OBJECT_ID,EPOCH,MEAN_MOTION,ECCENTRICITY,INCLINATION,RA_OF_ASC_NODE,ARG_OF_PERICENTER,MEAN_ANOMALY,EPHEMERIS_TYPE,CLASSIFICATION_TYPE,NORAD_CAT_ID,ELEMENT_SET_NO,REV_AT_EPOCH,BSTAR,MEAN_MOTION_DOT,MEAN_MOTION_DDOT
ONEWEB-0374,2021-090X,2026-03-01T06:14:08.200032,13.14501655,.0001281,87.9003,311.2283,64.1613,295.9648,0,U,49300,999,21338,-.26031E-3,-.84E-6,0
ONEWEB-0375,2021-090Y,2026-03-01T03:30:57.589632,13.20771303,.00015633,87.9189,296.0036,63.0448,297.0845,0,U,49301,999,21626,.18435649E-3,.88E-6,0
ONEWEB-0376,2021-090Z,2026-03-01T05:24:14.441760,13.19726546,.0001666,87.9248,326.4634,87.0560,273.0764,0,U,49302,999,21221,.2021E-3,.94E-6,0
ONEWEB-0377,2021-090AA,2026-03-01T04:59:48.066144,13.20771494,.0001816,87.9186,295.9936,78.7330,281.4007,0,U,49303,999,21626,.35889E-3,.159E-5,0
ONEWEB-0378,2021-090AB,2026-03-01T03:42:29.732256,13.20772413,.00015139,87.9177,296.0155,78.7677,281.3626,0,U,49304,999,21552,.31768473E-3,.142E-5,0
ONEWEB-0379,2021-090AC,2026-03-01T06:07:17.635872,13.14502241,.0001538,87.9003,311.2390,78.2665,281.8637,0,U,49305,999,21338,-.38943E-3,-.132E-5,0
ONEWEB-0380,2021-090AD,2026-03-01T07:08:52.060128,13.19726121,.0001822,87.9241,326.4651,71.7006,288.4324,0,U,49306,999,21219,.31974E-3,.141E-5,0
ONEWEB-0381,2021-090AE,2026-03-01T04:55:01.604352,13.20772877,.0001504,87.9185,295.9978,74.0724,286.0574,0,U,49307,999,21557,.20099E-3,.95E-6,0
ONEWEB-0382,2021-090AF,2026-03-01T04:36:50.988384,13.20772450,.0001385,87.9184,295.9968,73.9527,286.1759,0,U,49308,999,21556,.11497E-3,.6E-6,0
ONEWEB-0383,2021-090AG,2026-03-01T05:58:08.841216,13.14501405,.0001456,87.9004,311.2263,77.8341,282.2952,0,U,49309,999,21341,-.29795E-3,-.98E-6,0
ONEWEB-0384,2021-090AH,2026-03-01T04:24:42.397920,13.20806578,.0001193,87.9191,296.0410,69.0347,291.0914,0,U,49310,999,21557,-.60438E-4,-.12E-6,0
ONEWEB-0385,2021-090AJ,2026-03-01T04:25:30.295488,13.20771304,.0001502,87.9184,296.0031,77.8246,282.3056,0,U,49311,999,21554,.36305E-4,.28E-6,0
ONEWEB-0386,2021-090AK,2026-03-01T04:50:28.703040,13.20769503,.0001386,87.9188,295.9839,78.2566,281.8722,0,U,49312,999,21556,.24031E-3,.111E-5,0
ONEWEB-0387,2021-090AL,2026-03-01T04:27:45.749952,13.20772805,.0001719,87.9175,296.0256,72.3382,287.7938,0,U,49313,999,21556,.98073E-4,.53E-6,0
ONEWEB-0388,2021-090AM,2026-03-01T07:02:02.507712,13.19727127,.0001597,87.9236,326.4625,74.7570,285.3740,0,U,49314,999,21218,.31989E-3,.141E-5,0
ONEWEB-0389,2021-132A,2026-03-01T10:41:14.101440,13.17648648,.000185,87.9135,27.2653,70.7576,289.3756,0,U,50469,999,20389,.21717E-3,.97E-6,0
ONEWEB-0390,2021-132B,2026-03-01T10:43:38.104320,13.17651330,.0002154,87.9135,27.2651,82.0761,278.0615,0,U,50470,999,20389,.29089E-3,.126E-5,0
ONEWEB-0391,2021-132C,2026-03-01T10:46:06.010752,13.17649176,.0002292,87.9133,27.2742,61.6548,298.4814,0,U,50471,999,20389,.3752E-4,.27E-6,0
ONEWEB-0392,2021-132D,2026-03-01T09:40:29.064288,13.17648244,.0001937,87.9144,27.2427,70.1836,289.9504,0,U,50472,999,20392,.1113E-3,.56E-6,0
ONEWEB-0393,2021-132E,2026-03-01T10:51:08.613792,13.17650438,.0001889,87.9145,27.2563,76.5344,283.5998,0,U,50473,999,20392,.16161E-3,.76E-6,0
ONEWEB-0394,2021-132F,2026-03-01T08:28:38.759232,13.18686469,.000175,87.9246,356.8528,73.8628,286.2697,0,U,50474,999,20738,.42093E-4,.29E-6,0
ONEWEB-0395,2021-132G,2026-03-01T10:27:49.877280,13.11417226,.0002119,87.8846,42.4994,81.5933,278.5435,0,U,50475,999,20159,-.12964E-2,-.447E-5,0
ONEWEB-0396,2021-132H,2026-03-01T08:19:08.715360,13.18686089,.0001814,87.9248,356.8657,74.9945,285.1388,0,U,50476,999,20742,-.7769E-4,-.18E-6,0
ONEWEB-0397,2021-132J,2026-03-01T08:40:31.116000,13.18685862,.0001642,87.9247,356.8630,75.2558,284.8756,0,U,50477,999,20740,.1618E-3,.77E-6,0
ONEWEB-0398,2021-132K,2026-03-01T11:31:20.179488,13.11415049,.0002238,87.8854,42.4705,84.7106,275.4278,0,U,50478,999,20149,.15197E-2,.551E-5,0
ONEWEB-0399,2021-132L,2026-03-01T11:11:48.215328,13.11417011,.0001629,87.8851,42.4827,68.9385,291.1917,0,U,50479,999,20148,.13747E-2,.5E-5,0
ONEWEB-0400,2021-132M,2026-03-01T08:09:38.794176,13.18686392,.0002005,87.9247,356.8571,80.1165,280.0193,0,U,50480,999,20739,.5519E-4,.35E-6,0
ONEWEB-0401,2021-132N,2026-03-01T07:24:29.994336,13.18686946,.0001671,87.9249,356.8589,81.4557,278.6764,0,U,50481,999,20739,.84911E-4,.46E-6,0
ONEWEB-0402,2021-132P,2026-03-01T08:21:30.775104,13.18686762,.0001346,87.9246,356.8431,87.9271,272.2015,0,U,50482,999,20742,-.88721E-4,-.22E-6,0
ONEWEB-0403,2021-132Q,2026-03-01T08:57:08.914176,13.18685940,.0001878,87.9249,356.8608,75.4294,284.7046,0,U,50483,999,20738,.18772E-3,.87E-6,0
ONEWEB-0404,2021-132R,2026-03-01T10:44:55.908384,13.11418900,.0001912,87.8847,42.4941,74.0010,286.1328,0,U,50484,999,20157,-.58242E-3,-.194E-5,0
